[{"OBJECT_NAME":"BEIJING 1","OBJECT_ID":"2005-043A","EPOCH":"2026-03-09T22:42:03.803040","MEAN_MOTION":14.63461381,"ECCENTRICITY":0.00135876,"INCLINATION":98.2733,"RA_OF_ASC_NODE":201.7002,"ARG_OF_PERICENTER":229.3991,"MEAN_ANOMALY":130.6029,"EPHEMERIS_TYPE":0,"CLASSIFICATION_TYPE":"U","NORAD_CAT_ID":28890,"ELEMENT_SET_NO":999,"REV_AT_EPOCH":8613,"BSTAR":0.0001420019,"MEAN_MOTION_DOT":6.87e-6,"MEAN_MOTION_DDOT":0},{"OBJECT_NAME":"IRIDIUM 33 DEB","OBJECT_ID":"1997-051XX","EPOCH":"2026-03-08T03:52:22.157184","MEAN_MOTION":14.57501253,"ECCENTRICITY":0.00234012,"INCLINATION":86.3788,"RA_OF_ASC_NODE":6.3243,"ARG_OF_PERICENTER":171.8992,"MEAN_ANOMALY":253.3277,"EPHEMERIS_TYPE":0,"CLASSIFICATION_TYPE":"U","NORAD_CAT_ID":37562,"ELEMENT_SET_NO":999,"REV_AT_EPOCH":87572,"BSTAR":0.001666019,"MEAN_MOTION_DOT":7.621e-5,"MEAN_MOTION_DDOT":0}]
